147P/Kushida-Muramatsu,e,2.3321,92.9671,349.6648,3.999548,0.1232219,0.22867237,251.1008,07/08.0/2021,2000,g 14.0,4.0
# From MPEC 2014-R70
148P/Anderson-LINEAR,e,3.6581,89.2421,7.8938,3.622680,0.1429418,0.55005837,311.3283,07/08.0/2021,2000,g  9.0,4.0
# From MPC 75720
149P/Mueller,e,33.4106,144.5736,44.8934,4.343506,0.1088788,0.39884613,93.9117,07/08.0/2021,2000,g  8.0,8.0
# From MPC 75720
150P/LONEOS,e,18.5058,272.3749,245.5619,3.879519,0.1289844,0.54712672,233.6232,07/08.0/2021,2000,g 13.5,4.0
# From MPEC 2015-Q71
151P/Helin,e,4.7286,143.1571,216.0501,5.763528,0.0712314,0.57352122,149.3877,07/08.0/2021,2000,g 10.0,6.0
# From MPEC 2021-N06
152P/Helin-Lawrence,e,9.8800,91.8608,163.9123,4.477890,0.1040145,0.30881844,340.2852,07/08.0/2021,2000,g 11.5,4.0
# From MPC 46101
153P/Ikeya-Zhang,e,27.8275,93.1616,35.0850,50.63941,0.0027351,0.98962582,0.0000,03/05.9232/2002,2000,g  9.0,4.0
# From MPC 87068
154P/Brewington,e,17.6328,343.0373,47.8389,4.802749,0.0936417,0.67567109,259.6120,07/08.0/2021,2000,g  2.5,12.0
# From MPEC 2021-F20
155P/Shoemaker,e,6.3964,97.1922,14.6209,6.577931,0.0584211,0.72620376,35.1175,07/08.0/2021,2000,g 13.8,4.0
# From MPEC 2021-N06
156P/Russell-LINEAR,e,17.2623,35.3633,0.4387,3.460957,0.1530770,0.61484447,35.5311,07/08.0/2021,2000,g 15.5,2.0
# From MPC104795
157P/Tritton,e,12.4576,287.6974,154.8901,3.550888,0.1472986,0.55794333,296.9074,07/08.0/2021,2000,g 10.0,4.0
# From MPEC 2021-N06
158P/Kowal-LINEAR,e,8.0174,135.5243,172.0403,4.995486,0.0882749,0.03931476,5.2324,07/08.0/2021,2000,g  9.0,4.0
# From MPEC 2021-N06
159P/LONEOS,e,23.4661,54.9798,4.5711,5.854148,0.0695839,0.38176691,79.5364,07/08.0/2021,2000,g 10.0,4.0
# From MPEC 2021-J28
160P/LINEAR,e,15.6170,333.3593,12.7090,3.774419,0.1344092,0.52631266,78.4376,07/08.0/2021,2000,g 15.5,2.0
# From MPC 75721
161P/Hartley-IRAS,e,95.7844,1.5449,46.9515,7.724593,0.0459082,0.83479654,269.5667,07/08.0/2021,2000,g  8.5,6.0
# From MPEC 2021-N06
162P/Siding Spring,e,27.5545,30.9068,357.1448,3.091116,0.1813556,0.58294704,38.4779,07/08.0/2021,2000,g 12.0,4.0
# From MPEC 2020-HN5
163P/NEAT,e,12.7085,102.0857,349.6079,3.767550,0.1347769,0.45187247,94.7452,07/08.0/2021,2000,g 14.5,4.0
# From MPEC 2021-F20
164P/Christensen,e,16.2563,88.2897,325.8342,3.656658,0.1409540,0.54008365,159.7828,07/08.0/2021,2000,g 11.0,4.0
# From MPC 75721
165P/LINEAR,e,15.8960,0.8376,126.0196,17.87896,0.0130374,0.61495514,100.7100,07/08.0/2021,2000,g 11.5,2.0
# From MPC 75722
166P/NEAT,e,15.3695,64.4426,321.4575,13.81945,0.0191853,0.38347261,134.1601,07/08.0/2021,2000,g  5.5,4.0
# From MPC 75722
167P/CINEOS,e,19.1194,295.6636,344.5159,16.21548,0.0150942,0.27206619,111.1266,07/08.0/2021,2000,g  9.5,2.0
# From MPC102101
168P/Hergenrother,e,21.6209,355.4527,14.9982,3.582273,0.1453671,0.62093815,102.1420,07/08.0/2021,2000,g 15.5,4.0
# From MPEC 2021-N06
169P/NEAT,e,11.2986,176.1048,218.0495,2.601322,0.2349162,0.76819490,273.8510,07/08.0/2021,2000,g 16.0,2.0
# From MPC 89012
170P/Christensen,e,10.1250,142.9220,225.6059,4.198830,0.1145544,0.30380854,285.2947,07/08.0/2021,2000,g 12.0,4.0
# From MPC102102
171P/Spahr,e,21.9346,101.6947,347.0793,3.555362,0.1470207,0.50159037,133.3035,07/08.0/2021,2000,g 13.5,4.0
# From MPEC 2021-BE3
172P/Yeung,e,11.2283,30.8912,209.4130,4.213072,0.1139740,0.20543652,179.8823,07/08.0/2021,2000,g 13.0,4.0
# From MPEC 2021-J28
173P/Mueller,e,16.4947,100.4028,29.2181,5.704848,0.0723332,0.26081318,348.2797,07/08.0/2021,2000,g  7.5,4.0
# From MPC 92985
174P/Echeclus,e,4.3433,173.2187,163.1007,10.71957,0.0280827,0.45741644,63.6301,07/08.0/2021,2000,g  9.4,2.0
# From MPC114608
175P/Hergenrother,e,6.0628,123.4797,57.0559,3.452664,0.1536288,0.43482295,98.7061,07/08.0/2021,2000,g 14.0,4.0
# From MPC 89015
176P/LINEAR,e,0.2347,345.9105,34.9694,3.194286,0.1726408,0.19306328,273.1087,07/08.0/2021,2000,g 15.1,2.0
# From MPEC 2020-L06
177P/Barnard,e,31.2742,272.2369,60.2560,24.42419,0.0081653,0.95531041,44.2727,07/08.0/2021,2000,g 15.0,4.0
# From MPEC 2021-F20
178P/Hug-Bell,e,11.0887,102.8726,297.7930,3.632002,0.1423918,0.48206218,50.7407,07/08.0/2021,2000,g 14.6,4.0
# From MPC 75723
179P/Jedicke,e,19.8981,115.5201,296.7981,5.934963,0.0681675,0.30606147,337.8138,07/08.0/2021,2000,g  2.5,8.0
# From MPC100284
180P/NEAT,e,16.8659,84.5678,94.7994,3.863165,0.1298044,0.35304358,264.6355,07/08.0/2021,2000,g 11.0,4.0
# From MPC 89012
181P/Shoemaker-Levy,e,17.4860,35.4099,336.2382,3.873170,0.1293017,0.70057445,336.1098,07/08.0/2021,2000,g 11.5,4.0
# From MPEC 2014-J10
182P/LONEOS,e,16.2236,72.4940,54.1582,2.952221,0.1943036,0.66312570,300.1066,07/08.0/2021,2000,g 18.0,4.0
# From MPC110085
183P/Korlevic-Juric,e,18.7969,4.5112,166.4779,4.543452,0.1017713,0.13580618,133.5033,07/08.0/2021,2000,g 12.5,2.0
# From MPEC 2020-W26
184P/Lovas,e,4.5732,173.2514,186.4572,3.793746,0.1333834,0.55099040,33.9836,07/08.0/2021,2000,g 13.5,4.0
# From MPC109593
185P/Petriew,e,14.0070,214.0991,181.8740,3.098876,0.1806749,0.69927667,227.1830,07/08.0/2021,2000,g 15.0,4.0
# From MPEC 2020-W26
186P/Garradd,e,28.8683,326.6388,277.0795,4.935222,0.0898968,0.12156069,76.8959,07/08.0/2021,2000,g  7.5,4.0
# From MPEC 2020-SI8
187P/LINEAR,e,13.6343,109.9178,131.8381,4.569371,0.1009066,0.15208453,116.0259,07/08.0/2021,2000,g  9.0,4.0
# From MPC106349
188P/LINEAR-Mueller,e,10.5247,358.9624,26.5630,4.374043,0.1077406,0.41590683,172.5041,07/08.0/2021,2000,g 11.5,4.0
# From MPC106349
189P/NEAT,e,20.0698,281.7308,16.2911,2.946551,0.1948647,0.58875662,278.7806,07/08.0/2021,2000,g 19.0,4.0
# From MPEC 2020-K19
190P/Mueller,e,2.1743,335.5791,50.2794,4.233953,0.1131319,0.52145162,216.8315,07/08.0/2021,2000,g 13.0,4.0
# From MPEC 2021-BE3
191P/McNaught,e,8.8428,98.2322,284.0134,3.634213,0.1422619,0.38578492,15.6308,07/08.0/2021,2000,g 13.0,4.0
# From MPC 75724
192P/Shoemaker-Levy,e,24.5590,51.6207,312.9669,6.476092,0.0598046,0.77324303,297.1183,07/08.0/2021,2000,g 15.0,4.0
# From MPEC 2021-N06
193P/LINEAR-NEAT,e,10.6884,335.1747,8.1202,3.579750,0.1455208,0.39436426,352.9684,07/08.0/2021,2000,g 14.0,4.0
# From MPC 98566
194P/LINEAR,e,11.4839,350.5846,131.4332,3.984434,0.1239236,0.58333145,243.3556,07/08.0/2021,2000,g 16.0,4.0
# From MPC 75724
195P/Hill,e,36.3346,243.1203,249.3122,6.503217,0.0594308,0.31337000,271.9611,07/08.0/2021,2000,g  8.5,4.0
# From MPC 92985
196P/Tichy,e,19.2928,24.1638,12.2120,3.802007,0.1329489,0.42854302,296.3372,07/08.0/2021,2000,g 13.5,4.0
# From MPC 94676
197P/LINEAR,e,25.5345,66.3828,188.7489,2.867730,0.2029536,0.62958346,254.9419,07/08.0/2021,2000,g 16.5,2.0
# From NK 1596
198P/ODAS,e,1.3387,358.2538,69.1918,3.598717,0.1443718,0.44341058,135.3061,07/08.0/2021,2000,g  9.0,4.0
# From MPC 75725
199P/Shoemaker,e,24.9322,92.3802,191.6721,5.893183,0.0688937,0.50600603,307.5786,07/08.0/2021,2000,g 10.0,4.0
# From MPEC 2021-F20
200P/Larsen,e,12.1003,234.7895,134.0977,4.941268,0.0897318,0.33258054,63.6918,07/08.0/2021,2000,g  9.0,4.0
# From MPC 93588
201P/LONEOS,e,5.7390,19.7488,41.5441,3.353641,0.1604831,0.63699934,6.7925,07/08.0/2021,2000,g 14.0,4.0
# From MPEC 2021-N06
202P/Scotti,e,2.0795,178.1946,277.2984,4.055853,0.1206648,0.26715198,233.2608,07/08.0/2021,2000,g 13.5,4.0
# From MPEC 2021-F20
203P/Korlevic,e,2.9729,290.3431,154.8098,4.671000,0.0976313,0.31516039,47.8656,07/08.0/2021,2000,g 12.7,4.0
# From MPC 98566
204P/LINEAR-NEAT,e,6.6033,108.6215,356.1943,3.593948,0.1446593,0.48817974,288.2150,07/08.0/2021,2000,g 14.0,4.0
# From MPC 98566
205P/Giacobini,e,15.3045,179.6052,154.2102,3.542331,0.1478327,0.56805029,331.9955,07/08.0/2021,2000,g 13.0,4.0
# From MPC 75725
206P/Barnard-Boattini,e,33.6333,202.3457,189.4749,3.487635,0.1513239,0.55133973,18.9909,07/08.0/2021,2000,g 19.0,4.0
# From MPC 75725
207P/NEAT,e,10.1815,198.4328,272.9365,3.870136,0.1294538,0.75937385,238.5794,07/08.0/2021,2000,g 16.0,4.0
# From MPEC 2020-W26
208P/McMillan,e,4.4108,36.3458,310.4557,4.045341,0.1211355,0.37385650,221.6257,07/08.0/2021,2000,g 12.5,4.0
# From MPC 90771
209P/LINEAR,e,21.2563,62.7726,152.4657,2.959973,0.1935407,0.67306762,146.4055,07/08.0/2021,2000,g 17.0,2.0
# From MPC105242
210P/Christensen,e,10.2627,93.8310,345.8971,3.164311,0.1750997,0.83320554,79.8640,07/08.0/2021,2000,g 13.5,4.0
# From MPC 96868
211P/Hill,e,18.9212,117.1344,4.2503,3.546149,0.1475939,0.34339327,293.0527,07/08.0/2021,2000,g 12.5,4.0
# From MPEC 2021-F20
212P/NEAT,e,22.2600,98.3296,14.0844,3.887624,0.1285813,0.58830808,228.5398,07/08.0/2021,2000,g 17.0,2.0
# From MPC114608
213P/Van Ness,e,10.3825,311.2995,5.6468,3.347714,0.1609095,0.40825062,222.2455,07/08.0/2021,2000,g 10.5,4.0
# From MPC 92986
214P/LINEAR,e,15.1835,348.2510,190.2363,3.617857,0.1432277,0.48579588,296.2168,07/08.0/2021,2000,g 13.0,4.0
# From MPC100284
216P/LINEAR,e,9.0598,359.8088,151.3539,3.868079,0.1295571,0.44666045,241.6337,07/08.0/2021,2000,g 13.0,4.0
# From MPEC 2021-N06
217P/LINEAR,e,12.8643,125.4771,246.8465,3.950589,0.1255195,0.68879503,182.1783,07/08.0/2021,2000,g 12.0,4.0
# From MPEC 2020-K19
218P/LINEAR,e,2.7269,175.9652,59.7602,3.093643,0.1811335,0.62206317,50.2131,07/08.0/2021,2000,g 16.0,4.0
# From MPC100284
219P/LINEAR,e,11.5322,230.9690,107.4347,3.649559,0.1413655,0.35397399,225.6527,07/08.0/2021,2000,g 11.0,4.0
# From MPEC 2021-BE3
220P/McNaught,e,8.1288,150.1023,180.5328,3.115558,0.1792257,0.50171784,37.5254,07/08.0/2021,2000,g 15.0,4.0
# From MPEC 2021-J28
221P/LINEAR,e,11.4272,229.7035,40.1043,3.456002,0.1534063,0.49270624,334.9873,07/08.0/2021,2000,g 14.5,4.0
# From MPC 92277
222P/LINEAR,e,5.0974,6.7797,346.2466,2.899341,0.1996435,0.71465048,152.4626,07/08.0/2021,2000,g 20.0,4.0
# From MPEC 2021-F20
223P/Skiff,e,27.0245,346.7704,37.8155,4.159073,0.1162008,0.41601280,103.7023,07/08.0/2021,2000,g 14.5,4.0
# From MPC 75727
224P/LINEAR-NEAT,e,13.2976,40.1634,16.6799,3.444861,0.1541510,0.40704895,290.7868,07/08.0/2021,2000,g 15.5,4.0
# From MPC 75727
225P/LINEAR,e,21.3613,14.1940,3.8695,3.650037,0.1413377,0.63809633,252.4105,07/08.0/2021,2000,g 18.0,4.0
# From MPC106349
